STARLINK-2221           
1 48571U 21041U   26076.78409449 -.00000718  00000+0 -12105-4 0  9999
2 48571  53.1609 101.9878 0001406  95.8305 264.2856 15.30193785266331
STARLINK-2222           
1 48572U 21041V   26076.78314270 -.00000849  00000+0 -38110-4 0  9996
2 48572  53.0543 105.2848 0001337  83.6121 276.5020 15.06396307266287
STARLINK-2224           
1 48573U 21041W   26076.75615845  .00001048  00000+0  47486-4 0  9992
2 48573  53.1618  89.4667 0001177  86.7540 273.3595 15.30202608266509
STARLINK-2225           
1 48574U 21041X   26076.92778268  .00005985  00000+0  21404-3 0  9996
2 48574  53.1583  62.7350 0001720  92.1062 268.0136 15.30202031266892
STARLINK-2227           
1 48575U 21041Y   26076.64279289  .00001694  00000+0  69342-4 0  9992
2 48575  53.1606  51.2868 0001461  87.1500 272.9668 15.30192534267047
STARLINK-2228           
1 48576U 21041Z   26076.25777092  .00005090  00000+0  18385-3 0  9999
2 48576  53.1583  65.8573 0001153  76.5224 283.5905 15.30203617266809
STARLINK-2231           
1 48577U 21041AA  26076.74247064 -.00000276  00000+0  28125-5 0  9992
2 48577  53.1609  89.4838 0001800 121.2906 238.8271 15.30191774266505
STARLINK-2232           
1 48578U 21041AB  26076.96473349  .00003375  00000+0  12610-3 0  9996
2 48578  53.1590  88.2660 0001258  95.9396 264.1749 15.30182691266546
STARLINK-2234           
1 48580U 21041AD  26076.93833141  .00003049  00000+0  11509-3 0  9990
2 48580  53.1608  62.6919 0001603  96.5781 263.5402 15.30180533266903
STARLINK-2235           
1 48581U 21041AE  26076.93657447  .00000225  00000+0  33998-4 0  9994
2 48581  53.0564  59.6070 0001456  93.7053 266.4103 15.06388886266943
STARLINK-2236           
1 48582U 21041AF  26076.65238139  .00011107  00000+0  75951-3 0  9992
2 48582  53.0550  61.0328 0001601  95.1303 264.9869 15.06587869266896
STARLINK-2237           
1 48583U 21041AG  26076.45878644 -.00000676  00000+0 -26509-4 0  9999
2 48583  53.0542 106.7416 0001275  89.7855 270.3280 15.06398298266233
STARLINK-2238           
1 48584U 21041AH  26077.00002315  .01470842  00000+0  45423-1 0  9994
2 48584  53.0535 102.9091 0001646 124.6449  75.5380 15.30235554  5715
STARLINK-2241           
1 48586U 21041AK  26076.76840398 -.00000785  00000+0 -33816-4 0  9991
2 48586  53.0567 105.3529 0001385  91.9373 268.1775 15.06396440266270
STARLINK-2245           
1 48589U 21041AN  26076.46011950  .00001368  00000+0  58304-4 0  9990
2 48589  53.1579  90.6416 0001060  77.6238 282.4881 15.30190412266465
STARLINK-2249           
1 48592U 21041AR  26076.49565294  .00000271  00000+0  37089-4 0  9991
2 48592  53.0562 106.8077 0000892  92.9697 267.1395 15.06409551266239
