[{"OBJECT_NAME":"STARLINK-2221","OBJECT_ID":"2021-041U","EPOCH":"2026-03-17T18:49:05.763936","MEAN_MOTION":15.30193785,"ECCENTRICITY":0.00014061,"INCLINATION":53.1609,"RA_OF_ASC_NODE":101.9878,"ARG_OF_PERICENTER":95.8305,"MEAN_ANOMALY":264.2856,"EPHEMERIS_TYPE":0,"CLASSIFICATION_TYPE":"U","NORAD_CAT_ID":48571,"ELEMENT_SET_NO":999,"REV_AT_EPOCH":26633,"BSTAR":-1.2104756e-5,"MEAN_MOTION_DOT":-7.18e-6,"MEAN_MOTION_DDOT":0},{"OBJECT_NAME":"STARLINK-2222","OBJECT_ID":"2021-041V","EPOCH":"2026-03-17T18:47:43.529280","MEAN_MOTION":15.06396307,"ECCENTRICITY":0.00013373,"INCLINATION":53.0543,"RA_OF_ASC_NODE":105.2848,"ARG_OF_PERICENTER":83.6121,"MEAN_ANOMALY":276.502,"EPHEMERIS_TYPE":0,"CLASSIFICATION_TYPE":"U","NORAD_CAT_ID":48572,"ELEMENT_SET_NO":999,"REV_AT_EPOCH":26628,"BSTAR":-3.8110319e-5,"MEAN_MOTION_DOT":-8.49e-6,"MEAN_MOTION_DDOT":0},{"OBJECT_NAME":"STARLINK-2224","OBJECT_ID":"2021-041W","EPOCH":"2026-03-17T18:08:52.090080","MEAN_MOTION":15.30202608,"ECCENTRICITY":0.00011771,"INCLINATION":53.1618,"RA_OF_ASC_NODE":89.4667,"ARG_OF_PERICENTER":86.754,"MEAN_ANOMALY":273.3595,"EPHEMERIS_TYPE":0,"CLASSIFICATION_TYPE":"U","NORAD_CAT_ID":48573,"ELEMENT_SET_NO":999,"REV_AT_EPOCH":26650,"BSTAR":4.7486426e-5,"MEAN_MOTION_DOT":1.048e-5,"MEAN_MOTION_DDOT":0},{"OBJECT_NAME":"STARLINK-2225","OBJECT_ID":"2021-041X","EPOCH":"2026-03-17T22:16:00.423552","MEAN_MOTION":15.30202031,"ECCENTRICITY":0.00017203,"INCLINATION":53.1583,"RA_OF_ASC_NODE":62.735,"ARG_OF_PERICENTER":92.1062,"MEAN_ANOMALY":268.0136,"EPHEMERIS_TYPE":0,"CLASSIFICATION_TYPE":"U","NORAD_CAT_ID":48574,"ELEMENT_SET_NO":999,"REV_AT_EPOCH":26689,"BSTAR":0.00021404035,"MEAN_MOTION_DOT":5.985e-5,"MEAN_MOTION_DDOT":0},{"OBJECT_NAME":"STARLINK-2227","OBJECT_ID":"2021-041Y","EPOCH":"2026-03-17T15:25:37.305696","MEAN_MOTION":15.30192534,"ECCENTRICITY":0.0001461,"INCLINATION":53.1606,"RA_OF_ASC_NODE":51.2868,"ARG_OF_PERICENTER":87.15,"MEAN_ANOMALY":272.9668,"EPHEMERIS_TYPE":0,"CLASSIFICATION_TYPE":"U","NORAD_CAT_ID":48575,"ELEMENT_SET_NO":999,"REV_AT_EPOCH":26704,"BSTAR":6.9341696e-5,"MEAN_MOTION_DOT":1.694e-5,"MEAN_MOTION_DDOT":0},{"OBJECT_NAME":"STARLINK-2228","OBJECT_ID":"2021-041Z","EPOCH":"2026-03-17T06:11:11.407488","MEAN_MOTION":15.30203617,"ECCENTRICITY":0.00011537,"INCLINATION":53.1583,"RA_OF_ASC_NODE":65.8573,"ARG_OF_PERICENTER":76.5224,"MEAN_ANOMALY":283.5905,"EPHEMERIS_TYPE":0,"CLASSIFICATION_TYPE":"U","NORAD_CAT_ID":48576,"ELEMENT_SET_NO":999,"REV_AT_EPOCH":26680,"BSTAR":0.00018384578,"MEAN_MOTION_DOT":5.09e-5,"MEAN_MOTION_DDOT":0},{"OBJECT_NAME":"STARLINK-2231","OBJECT_ID":"2021-041AA","EPOCH":"2026-03-17T17:49:09.463296","MEAN_MOTION":15.30191774,"ECCENTRICITY":0.00018006,"INCLINATION":53.1609,"RA_OF_ASC_NODE":89.4838,"ARG_OF_PERICENTER":121.2906,"MEAN_ANOMALY":238.8271,"EPHEMERIS_TYPE":0,"CLASSIFICATION_TYPE":"U","NORAD_CAT_ID":48577,"ELEMENT_SET_NO":999,"REV_AT_EPOCH":26650,"BSTAR":2.812543e-6,"MEAN_MOTION_DOT":-2.76e-6,"MEAN_MOTION_DDOT":0},{"OBJECT_NAME":"STARLINK-2232","OBJECT_ID":"2021-041AB","EPOCH":"2026-03-17T23:09:12.973536","MEAN_MOTION":15.30182691,"ECCENTRICITY":0.0001258,"INCLINATION":53.159,"RA_OF_ASC_NODE":88.266,"ARG_OF_PERICENTER":95.9396,"MEAN_ANOMALY":264.1749,"EPHEMERIS_TYPE":0,"CLASSIFICATION_TYPE":"U","NORAD_CAT_ID":48578,"ELEMENT_SET_NO":999,"REV_AT_EPOCH":26654,"BSTAR":0.00012610226,"MEAN_MOTION_DOT":3.375e-5,"MEAN_MOTION_DDOT":0},{"OBJECT_NAME":"STARLINK-2234","OBJECT_ID":"2021-041AD","EPOCH":"2026-03-17T22:31:11.833824","MEAN_MOTION":15.30180533,"ECCENTRICITY":0.00016039,"INCLINATION":53.1608,"RA_OF_ASC_NODE":62.6919,"ARG_OF_PERICENTER":96.5781,"MEAN_ANOMALY":263.5402,"EPHEMERIS_TYPE":0,"CLASSIFICATION_TYPE":"U","NORAD_CAT_ID":48580,"ELEMENT_SET_NO":999,"REV_AT_EPOCH":26690,"BSTAR":0.0001150883,"MEAN_MOTION_DOT":3.049e-5,"MEAN_MOTION_DDOT":0},{"OBJECT_NAME":"STARLINK-2235","OBJECT_ID":"2021-041AE","EPOCH":"2026-03-17T22:28:40.034208","MEAN_MOTION":15.06388886,"ECCENTRICITY":0.00014568,"INCLINATION":53.0564,"RA_OF_ASC_NODE":59.607,"ARG_OF_PERICENTER":93.7053,"MEAN_ANOMALY":266.4103,"EPHEMERIS_TYPE":0,"CLASSIFICATION_TYPE":"U","NORAD_CAT_ID":48581,"ELEMENT_SET_NO":999,"REV_AT_EPOCH":26694,"BSTAR":3.3998168e-5,"MEAN_MOTION_DOT":2.25e-6,"MEAN_MOTION_DDOT":0},{"OBJECT_NAME":"STARLINK-2236","OBJECT_ID":"2021-041AF","EPOCH":"2026-03-17T15:39:25.752096","MEAN_MOTION":15.06587869,"ECCENTRICITY":0.0001601,"INCLINATION":53.055,"RA_OF_ASC_NODE":61.0328,"ARG_OF_PERICENTER":95.1303,"MEAN_ANOMALY":264.9869,"EPHEMERIS_TYPE":0,"CLASSIFICATION_TYPE":"U","NORAD_CAT_ID":48582,"ELEMENT_SET_NO":999,"REV_AT_EPOCH":26689,"BSTAR":0.0007595098,"MEAN_MOTION_DOT":0.00011107,"MEAN_MOTION_DDOT":0},{"OBJECT_NAME":"STARLINK-2237","OBJECT_ID":"2021-041AG","EPOCH":"2026-03-17T11:00:39.148416","MEAN_MOTION":15.06398298,"ECCENTRICITY":0.00012752,"INCLINATION":53.0542,"RA_OF_ASC_NODE":106.7416,"ARG_OF_PERICENTER":89.7855,"MEAN_ANOMALY":270.328,"EPHEMERIS_TYPE":0,"CLASSIFICATION_TYPE":"U","NORAD_CAT_ID":48583,"ELEMENT_SET_NO":999,"REV_AT_EPOCH":26623,"BSTAR":-2.6508703e-5,"MEAN_MOTION_DOT":-6.76e-6,"MEAN_MOTION_DDOT":0},{"OBJECT_NAME":"STARLINK-2238","OBJECT_ID":"2021-041AH","EPOCH":"2026-03-18T00:00:02.000160","MEAN_MOTION":15.30235554,"ECCENTRICITY":0.00016462,"INCLINATION":53.0535,"RA_OF_ASC_NODE":102.9091,"ARG_OF_PERICENTER":124.6449,"MEAN_ANOMALY":75.538,"EPHEMERIS_TYPE":0,"CLASSIFICATION_TYPE":"U","NORAD_CAT_ID":48584,"ELEMENT_SET_NO":999,"REV_AT_EPOCH":571,"BSTAR":0.045422794,"MEAN_MOTION_DOT":0.01470842,"MEAN_MOTION_DDOT":0},{"OBJECT_NAME":"STARLINK-2241","OBJECT_ID":"2021-041AK","EPOCH":"2026-03-17T18:26:30.103872","MEAN_MOTION":15.0639644,"ECCENTRICITY":0.0001385,"INCLINATION":53.0567,"RA_OF_ASC_NODE":105.3529,"ARG_OF_PERICENTER":91.9373,"MEAN_ANOMALY":268.1775,"EPHEMERIS_TYPE":0,"CLASSIFICATION_TYPE":"U","NORAD_CAT_ID":48586,"ELEMENT_SET_NO":999,"REV_AT_EPOCH":26627,"BSTAR":-3.3815989e-5,"MEAN_MOTION_DOT":-7.85e-6,"MEAN_MOTION_DDOT":0},{"OBJECT_NAME":"STARLINK-2245","OBJECT_ID":"2021-041AN","EPOCH":"2026-03-17T11:02:34.324800","MEAN_MOTION":15.30190412,"ECCENTRICITY":0.00010601,"INCLINATION":53.1579,"RA_OF_ASC_NODE":90.6416,"ARG_OF_PERICENTER":77.6238,"MEAN_ANOMALY":282.4881,"EPHEMERIS_TYPE":0,"CLASSIFICATION_TYPE":"U","NORAD_CAT_ID":48589,"ELEMENT_SET_NO":999,"REV_AT_EPOCH":26646,"BSTAR":5.8304332e-5,"MEAN_MOTION_DOT":1.368e-5,"MEAN_MOTION_DDOT":0},{"OBJECT_NAME":"STARLINK-2249","OBJECT_ID":"2021-041AR","EPOCH":"2026-03-17T11:53:44.414016","MEAN_MOTION":15.06409551,"ECCENTRICITY":8.925e-5,"INCLINATION":53.0562,"RA_OF_ASC_NODE":106.8077,"ARG_OF_PERICENTER":92.9697,"MEAN_ANOMALY":267.1395,"EPHEMERIS_TYPE":0,"CLASSIFICATION_TYPE":"U","NORAD_CAT_ID":48592,"ELEMENT_SET_NO":999,"REV_AT_EPOCH":26623,"BSTAR":3.7088719e-5,"MEAN_MOTION_DOT":2.71e-6,"MEAN_MOTION_DDOT":0}]
